SL-14 R/B               
1 16792U 86046B   26025.49751631  .00000847  00000+0  94788-4 0  9998
2 16792  82.4834 120.9921 0023427  14.5458 345.6427 14.85544191119997
SL-14 R/B               
1 16882U 86055B   26025.49543368  .00001049  00000+0  11809-3 0  9991
2 16882  82.5219 167.2572 0020308 113.4441 312.9095 14.85590191112955
AJISAI (EGS)            
1 16908U 86061A   26025.50257876 -.00000088  00000+0  63613-4 0  9999
2 16908  50.0061 226.1492 0011272 176.0088 218.4597 12.44515207462624
COSMOS 1812             
1 17295U 87003A   26025.08751287  .00212823  00000+0  77786-3 0  9990
2 17295  82.4804 244.7049 0001341  39.2873 320.8496 15.87849225137502
SL-14 R/B               
1 17567U 87024B   26025.34464800  .00000917  00000+0  10167-3 0  9995
2 17567  82.5303 133.4950 0019336  47.7069 312.5782 14.86084916 81698
COSMOS 1833             
1 17589U 87027A   26025.46628846  .00000228  00000+0  14736-3 0  9998
2 17589  70.9195  56.8628 0024546 271.8824  87.9486 14.13051042  4211
SL-16 R/B               
1 17590U 87027B   26025.35335558  .00000103  00000+0  74623-4 0  9997
2 17590  71.0035   7.8125 0005939 211.2958 148.7813 14.17159889  9203
SL-14 R/B               
1 17912U 87038B   26025.31727134  .00000991  00000+0  11231-3 0  9998
2 17912  82.5036 337.6537 0018093 311.4915  48.4747 14.85318536 72798
COSMOS 1844             
1 17973U 87041A   26025.47634715 -.00000135  00000+0 -44997-4 0  9996
2 17973  70.8991 125.3263 0028421  87.2522 273.1852 14.14534967997476
SL-14 R/B               
1 18153U 87055B   26025.50373979  .00000798  00000+0  89141-4 0  9991
2 18153  82.4978  29.7327 0021346 152.4665 207.7687 14.85573523 63529
COSMOS 1867             
1 18187U 87060A   26025.47630528  .00000026  00000+0  47464-4 0  9992
2 18187  65.0102  67.7227 0013965 275.2962  84.6529 14.31495284 13750
SL-14 R/B               
1 18749U 88001B   26025.29407131  .00000716  00000+0  79979-4 0  9996
2 18749  82.5104 236.1808 0018765  26.2859 333.9305 14.85475119 35580
