CCSDS_OMM_VERS = 2.0
CREATION_DATE  = 
ORIGINATOR     = 

OBJECT_NAME    = SL-14 R/B
OBJECT_ID      = 1986-046B
CENTER_NAME    = EARTH
REF_FRAME      = TEME
TIME_SYSTEM    = UTC
MEAN_ELEMENT_THEORY = SGP/SGP4

EPOCH          = 2026-01-25T11:56:25.409184
MEAN_MOTION    = 14.85544191
ECCENTRICITY   = .0023427
INCLINATION    = 82.4834
RA_OF_ASC_NODE = 120.9921
ARG_OF_PERICENTER = 14.5458
MEAN_ANOMALY   = 345.6427

EPHEMERIS_TYPE = 0
CLASSIFICATION_TYPE = U
NORAD_CAT_ID   = 16792
ELEMENT_SET_NO = 999
REV_AT_EPOCH   = 11999
BSTAR          = .94788E-4
MEAN_MOTION_DOT = .847E-5
MEAN_MOTION_DDOT = 0

CCSDS_OMM_VERS = 2.0
CREATION_DATE  = 
ORIGINATOR     = 

OBJECT_NAME    = SL-14 R/B
OBJECT_ID      = 1986-055B
CENTER_NAME    = EARTH
REF_FRAME      = TEME
TIME_SYSTEM    = UTC
MEAN_ELEMENT_THEORY = SGP/SGP4

EPOCH          = 2026-01-25T11:53:25.469952
MEAN_MOTION    = 14.85590191
ECCENTRICITY   = .0020308
INCLINATION    = 82.5219
RA_OF_ASC_NODE = 167.2572
ARG_OF_PERICENTER = 113.4441
MEAN_ANOMALY   = 312.9095

EPHEMERIS_TYPE = 0
CLASSIFICATION_TYPE = U
NORAD_CAT_ID   = 16882
ELEMENT_SET_NO = 999
REV_AT_EPOCH   = 11295
BSTAR          = .11809E-3
MEAN_MOTION_DOT = .1049E-4
MEAN_MOTION_DDOT = 0

CCSDS_OMM_VERS = 2.0
CREATION_DATE  = 
ORIGINATOR     = 

OBJECT_NAME    = AJISAI (EGS)
OBJECT_ID      = 1986-061A
CENTER_NAME    = EARTH
REF_FRAME      = TEME
TIME_SYSTEM    = UTC
MEAN_ELEMENT_THEORY = SGP/SGP4

EPOCH          = 2026-01-25T12:03:42.804864
MEAN_MOTION    = 12.44515207
ECCENTRICITY   = .0011272
INCLINATION    = 50.0061
RA_OF_ASC_NODE = 226.1492
ARG_OF_PERICENTER = 176.0088
MEAN_ANOMALY   = 218.4597

EPHEMERIS_TYPE = 0
CLASSIFICATION_TYPE = U
NORAD_CAT_ID   = 16908
ELEMENT_SET_NO = 999
REV_AT_EPOCH   = 46262
BSTAR          = .63613E-4
MEAN_MOTION_DOT = -.88E-6
MEAN_MOTION_DDOT = 0

CCSDS_OMM_VERS = 2.0
CREATION_DATE  = 
ORIGINATOR     = 

OBJECT_NAME    = COSMOS 1812
OBJECT_ID      = 1987-003A
CENTER_NAME    = EARTH
REF_FRAME      = TEME
TIME_SYSTEM    = UTC
MEAN_ELEMENT_THEORY = SGP/SGP4

EPOCH          = 2026-01-25T02:06:01.111968
MEAN_MOTION    = 15.87849225
ECCENTRICITY   = .00013413
INCLINATION    = 82.4804
RA_OF_ASC_NODE = 244.7049
ARG_OF_PERICENTER = 39.2873
MEAN_ANOMALY   = 320.8496

EPHEMERIS_TYPE = 0
CLASSIFICATION_TYPE = U
NORAD_CAT_ID   = 17295
ELEMENT_SET_NO = 999
REV_AT_EPOCH   = 13750
BSTAR          = .77785618E-3
MEAN_MOTION_DOT = .212823E-2
MEAN_MOTION_DDOT = 0

CCSDS_OMM_VERS = 2.0
CREATION_DATE  = 
ORIGINATOR     = 

OBJECT_NAME    = SL-14 R/B
OBJECT_ID      = 1987-024B
CENTER_NAME    = EARTH
REF_FRAME      = TEME
TIME_SYSTEM    = UTC
MEAN_ELEMENT_THEORY = SGP/SGP4

EPOCH          = 2026-01-25T08:16:17.587200
MEAN_MOTION    = 14.86084916
ECCENTRICITY   = .0019336
INCLINATION    = 82.5303
RA_OF_ASC_NODE = 133.4950
ARG_OF_PERICENTER = 47.7069
MEAN_ANOMALY   = 312.5782

EPHEMERIS_TYPE = 0
CLASSIFICATION_TYPE = U
NORAD_CAT_ID   = 17567
ELEMENT_SET_NO = 999
REV_AT_EPOCH   = 8169
BSTAR          = .10167E-3
MEAN_MOTION_DOT = .917E-5
MEAN_MOTION_DDOT = 0

CCSDS_OMM_VERS = 2.0
CREATION_DATE  = 
ORIGINATOR     = 

OBJECT_NAME    = COSMOS 1833
OBJECT_ID      = 1987-027A
CENTER_NAME    = EARTH
REF_FRAME      = TEME
TIME_SYSTEM    = UTC
MEAN_ELEMENT_THEORY = SGP/SGP4

EPOCH          = 2026-01-25T11:11:27.322944
MEAN_MOTION    = 14.13051042
ECCENTRICITY   = .0024546
INCLINATION    = 70.9195
RA_OF_ASC_NODE = 56.8628
ARG_OF_PERICENTER = 271.8824
MEAN_ANOMALY   = 87.9486

EPHEMERIS_TYPE = 0
CLASSIFICATION_TYPE = U
NORAD_CAT_ID   = 17589
ELEMENT_SET_NO = 999
REV_AT_EPOCH   = 421
BSTAR          = .14736E-3
MEAN_MOTION_DOT = .228E-5
MEAN_MOTION_DDOT = 0

CCSDS_OMM_VERS = 2.0
CREATION_DATE  = 
ORIGINATOR     = 

OBJECT_NAME    = SL-16 R/B
OBJECT_ID      = 1987-027B
CENTER_NAME    = EARTH
REF_FRAME      = TEME
TIME_SYSTEM    = UTC
MEAN_ELEMENT_THEORY = SGP/SGP4

EPOCH          = 2026-01-25T08:28:49.922112
MEAN_MOTION    = 14.17159889
ECCENTRICITY   = .0005939
INCLINATION    = 71.0035
RA_OF_ASC_NODE = 7.8125
ARG_OF_PERICENTER = 211.2958
MEAN_ANOMALY   = 148.7813

EPHEMERIS_TYPE = 0
CLASSIFICATION_TYPE = U
NORAD_CAT_ID   = 17590
ELEMENT_SET_NO = 999
REV_AT_EPOCH   = 920
BSTAR          = .74623E-4
MEAN_MOTION_DOT = .103E-5
MEAN_MOTION_DDOT = 0

CCSDS_OMM_VERS = 2.0
CREATION_DATE  = 
ORIGINATOR     = 

OBJECT_NAME    = SL-14 R/B
OBJECT_ID      = 1987-038B
CENTER_NAME    = EARTH
REF_FRAME      = TEME
TIME_SYSTEM    = UTC
MEAN_ELEMENT_THEORY = SGP/SGP4

EPOCH          = 2026-01-25T07:36:52.243776
MEAN_MOTION    = 14.85318536
ECCENTRICITY   = .0018093
INCLINATION    = 82.5036
RA_OF_ASC_NODE = 337.6537
ARG_OF_PERICENTER = 311.4915
MEAN_ANOMALY   = 48.4747

EPHEMERIS_TYPE = 0
CLASSIFICATION_TYPE = U
NORAD_CAT_ID   = 17912
ELEMENT_SET_NO = 999
REV_AT_EPOCH   = 7279
BSTAR          = .11231E-3
MEAN_MOTION_DOT = .991E-5
MEAN_MOTION_DDOT = 0

CCSDS_OMM_VERS = 2.0
CREATION_DATE  = 
ORIGINATOR     = 

OBJECT_NAME    = COSMOS 1844
OBJECT_ID      = 1987-041A
CENTER_NAME    = EARTH
REF_FRAME      = TEME
TIME_SYSTEM    = UTC
MEAN_ELEMENT_THEORY = SGP/SGP4

EPOCH          = 2026-01-25T11:25:56.393760
MEAN_MOTION    = 14.14534967
ECCENTRICITY   = .0028421
INCLINATION    = 70.8991
RA_OF_ASC_NODE = 125.3263
ARG_OF_PERICENTER = 87.2522
MEAN_ANOMALY   = 273.1852

EPHEMERIS_TYPE = 0
CLASSIFICATION_TYPE = U
NORAD_CAT_ID   = 17973
ELEMENT_SET_NO = 999
REV_AT_EPOCH   = 99747
BSTAR          = -.44997E-4
MEAN_MOTION_DOT = -.135E-5
MEAN_MOTION_DDOT = 0

CCSDS_OMM_VERS = 2.0
CREATION_DATE  = 
ORIGINATOR     = 

OBJECT_NAME    = SL-14 R/B
OBJECT_ID      = 1987-055B
CENTER_NAME    = EARTH
REF_FRAME      = TEME
TIME_SYSTEM    = UTC
MEAN_ELEMENT_THEORY = SGP/SGP4

EPOCH          = 2026-01-25T12:05:23.117856
MEAN_MOTION    = 14.85573523
ECCENTRICITY   = .0021346
INCLINATION    = 82.4978
RA_OF_ASC_NODE = 29.7327
ARG_OF_PERICENTER = 152.4665
MEAN_ANOMALY   = 207.7687

EPHEMERIS_TYPE = 0
CLASSIFICATION_TYPE = U
NORAD_CAT_ID   = 18153
ELEMENT_SET_NO = 999
REV_AT_EPOCH   = 6352
BSTAR          = .89141E-4
MEAN_MOTION_DOT = .798E-5
MEAN_MOTION_DDOT = 0

CCSDS_OMM_VERS = 2.0
CREATION_DATE  = 
ORIGINATOR     = 

OBJECT_NAME    = COSMOS 1867
OBJECT_ID      = 1987-060A
CENTER_NAME    = EARTH
REF_FRAME      = TEME
TIME_SYSTEM    = UTC
MEAN_ELEMENT_THEORY = SGP/SGP4

EPOCH          = 2026-01-25T11:25:52.776192
MEAN_MOTION    = 14.31495284
ECCENTRICITY   = .0013965
INCLINATION    = 65.0102
RA_OF_ASC_NODE = 67.7227
ARG_OF_PERICENTER = 275.2962
MEAN_ANOMALY   = 84.6529

EPHEMERIS_TYPE = 0
CLASSIFICATION_TYPE = U
NORAD_CAT_ID   = 18187
ELEMENT_SET_NO = 999
REV_AT_EPOCH   = 1375
BSTAR          = .47464E-4
MEAN_MOTION_DOT = .26E-6
MEAN_MOTION_DDOT = 0

CCSDS_OMM_VERS = 2.0
CREATION_DATE  = 
ORIGINATOR     = 

OBJECT_NAME    = SL-14 R/B
OBJECT_ID      = 1988-001B
CENTER_NAME    = EARTH
REF_FRAME      = TEME
TIME_SYSTEM    = UTC
MEAN_ELEMENT_THEORY = SGP/SGP4

EPOCH          = 2026-01-25T07:03:27.761184
MEAN_MOTION    = 14.85475119
ECCENTRICITY   = .0018765
INCLINATION    = 82.5104
RA_OF_ASC_NODE = 236.1808
ARG_OF_PERICENTER = 26.2859
MEAN_ANOMALY   = 333.9305

EPHEMERIS_TYPE = 0
CLASSIFICATION_TYPE = U
NORAD_CAT_ID   = 18749
ELEMENT_SET_NO = 999
REV_AT_EPOCH   = 3558
BSTAR          = .79979E-4
MEAN_MOTION_DOT = .716E-5
MEAN_MOTION_DDOT = 0

